CCSDS_OMM_VERS = 2.0
CREATION_DATE  = 
ORIGINATOR     = 

OBJECT_NAME    = IDEFIX & ARIANE 42P R/B
OBJECT_ID      = 2002-021B
CENTER_NAME    = EARTH
REF_FRAME      = TEME
TIME_SYSTEM    = UTC
MEAN_ELEMENT_THEORY = SGP/SGP4

EPOCH          = 2025-12-14T07:57:07.209216
MEAN_MOTION    = 14.30951994
ECCENTRICITY   = .00129522
INCLINATION    = 98.5788
RA_OF_ASC_NODE = 283.0015
ARG_OF_PERICENTER = 79.4006
MEAN_ANOMALY   = 280.8635

EPHEMERIS_TYPE = 0
CLASSIFICATION_TYPE = U
NORAD_CAT_ID   = 27422
ELEMENT_SET_NO = 999
REV_AT_EPOCH   = 23181
BSTAR          = .18332695E-3
MEAN_MOTION_DOT = .439E-5
MEAN_MOTION_DDOT = 0

CCSDS_OMM_VERS = 2.0
CREATION_DATE  = 
ORIGINATOR     = 

OBJECT_NAME    = AQUA
OBJECT_ID      = 2002-022A
CENTER_NAME    = EARTH
REF_FRAME      = TEME
TIME_SYSTEM    = UTC
MEAN_ELEMENT_THEORY = SGP/SGP4

EPOCH          = 2025-12-14T08:26:00.598848
MEAN_MOTION    = 14.61814134
ECCENTRICITY   = .00011511
INCLINATION    = 98.4039
RA_OF_ASC_NODE = 309.2565
ARG_OF_PERICENTER = 113.9889
MEAN_ANOMALY   = 48.0491

EPHEMERIS_TYPE = 0
CLASSIFICATION_TYPE = U
NORAD_CAT_ID   = 27424
ELEMENT_SET_NO = 999
REV_AT_EPOCH   = 25626
BSTAR          = .32213199E-3
MEAN_MOTION_DOT = .1559E-4
MEAN_MOTION_DDOT = 0

CCSDS_OMM_VERS = 2.0
CREATION_DATE  = 
ORIGINATOR     = 

OBJECT_NAME    = CZ-4B R/B
OBJECT_ID      = 2002-024C
CENTER_NAME    = EARTH
REF_FRAME      = TEME
TIME_SYSTEM    = UTC
MEAN_ELEMENT_THEORY = SGP/SGP4

EPOCH          = 2025-12-14T03:06:41.209632
MEAN_MOTION    = 14.14528055
ECCENTRICITY   = .00491627
INCLINATION    = 98.8999
RA_OF_ASC_NODE = 36.8965
ARG_OF_PERICENTER = 265.8768
MEAN_ANOMALY   = 148.3624

EPHEMERIS_TYPE = 0
CLASSIFICATION_TYPE = U
NORAD_CAT_ID   = 27432
ELEMENT_SET_NO = 999
REV_AT_EPOCH   = 21714
BSTAR          = .621627E-4
MEAN_MOTION_DOT = .76E-6
MEAN_MOTION_DDOT = 0

CCSDS_OMM_VERS = 2.0
CREATION_DATE  = 
ORIGINATOR     = 

OBJECT_NAME    = MIDORI II (ADEOS-II)
OBJECT_ID      = 2002-056A
CENTER_NAME    = EARTH
REF_FRAME      = TEME
TIME_SYSTEM    = UTC
MEAN_ELEMENT_THEORY = SGP/SGP4

EPOCH          = 2025-12-14T07:48:52.613280
MEAN_MOTION    = 14.29207205
ECCENTRICITY   = .00002609
INCLINATION    = 98.7638
RA_OF_ASC_NODE = 301.2902
ARG_OF_PERICENTER = 157.2080
MEAN_ANOMALY   = 202.9113

EPHEMERIS_TYPE = 0
CLASSIFICATION_TYPE = U
NORAD_CAT_ID   = 27597
ELEMENT_SET_NO = 999
REV_AT_EPOCH   = 19810
BSTAR          = .17233376E-3
MEAN_MOTION_DOT = .393E-5
MEAN_MOTION_DDOT = 0

CCSDS_OMM_VERS = 2.0
CREATION_DATE  = 
ORIGINATOR     = 

OBJECT_NAME    = H-2A R/B
OBJECT_ID      = 2002-056E
CENTER_NAME    = EARTH
REF_FRAME      = TEME
TIME_SYSTEM    = UTC
MEAN_ELEMENT_THEORY = SGP/SGP4

EPOCH          = 2025-12-14T03:16:51.540960
MEAN_MOTION    = 14.33677559
ECCENTRICITY   = .00713451
INCLINATION    = 98.3068
RA_OF_ASC_NODE = 306.8378
ARG_OF_PERICENTER = 57.0420
MEAN_ANOMALY   = 314.7368

EPHEMERIS_TYPE = 0
CLASSIFICATION_TYPE = U
NORAD_CAT_ID   = 27601
ELEMENT_SET_NO = 999
REV_AT_EPOCH   = 20185
BSTAR          = .19039484E-3
MEAN_MOTION_DOT = .502E-5
MEAN_MOTION_DDOT = 0

CCSDS_OMM_VERS = 2.0
CREATION_DATE  = 
ORIGINATOR     = 

OBJECT_NAME    = CZ-4B R/B
OBJECT_ID      = 2003-049C
CENTER_NAME    = EARTH
REF_FRAME      = TEME
TIME_SYSTEM    = UTC
MEAN_ELEMENT_THEORY = SGP/SGP4

EPOCH          = 2025-12-14T05:54:29.875968
MEAN_MOTION    = 14.54911028
ECCENTRICITY   = .00490581
INCLINATION    = 98.6789
RA_OF_ASC_NODE = 334.8670
ARG_OF_PERICENTER = 131.5586
MEAN_ANOMALY   = 228.9832

EPHEMERIS_TYPE = 0
CLASSIFICATION_TYPE = U
NORAD_CAT_ID   = 28059
ELEMENT_SET_NO = 999
REV_AT_EPOCH   = 17417
BSTAR          = .13434392E-3
MEAN_MOTION_DOT = .536E-5
MEAN_MOTION_DDOT = 0

CCSDS_OMM_VERS = 2.0
CREATION_DATE  = 
ORIGINATOR     = 

OBJECT_NAME    = CZ-2C R/B
OBJECT_ID      = 2004-012C
CENTER_NAME    = EARTH
REF_FRAME      = TEME
TIME_SYSTEM    = UTC
MEAN_ELEMENT_THEORY = SGP/SGP4

EPOCH          = 2025-12-14T08:20:36.242880
MEAN_MOTION    = 15.55671782
ECCENTRICITY   = .00164565
INCLINATION    = 97.7425
RA_OF_ASC_NODE = 41.1017
ARG_OF_PERICENTER = 264.0415
MEAN_ANOMALY   = 95.8963

EPHEMERIS_TYPE = 0
CLASSIFICATION_TYPE = U
NORAD_CAT_ID   = 28222
ELEMENT_SET_NO = 999
REV_AT_EPOCH   = 19097
BSTAR          = .54659281E-3
MEAN_MOTION_DOT = .37791E-3
MEAN_MOTION_DDOT = 0

CCSDS_OMM_VERS = 2.0
CREATION_DATE  = 
ORIGINATOR     = 

OBJECT_NAME    = SL-16 R/B
OBJECT_ID      = 2004-021B
CENTER_NAME    = EARTH
REF_FRAME      = TEME
TIME_SYSTEM    = UTC
MEAN_ELEMENT_THEORY = SGP/SGP4

EPOCH          = 2025-12-14T07:38:50.676576
MEAN_MOTION    = 14.14580079
ECCENTRICITY   = .00052037
INCLINATION    = 71.0014
RA_OF_ASC_NODE = 51.6522
ARG_OF_PERICENTER = 197.8549
MEAN_ANOMALY   = 162.2391

EPHEMERIS_TYPE = 0
CLASSIFICATION_TYPE = U
NORAD_CAT_ID   = 28353
ELEMENT_SET_NO = 999
REV_AT_EPOCH   = 11076
BSTAR          = -.95587058E-4
MEAN_MOTION_DOT = -.231E-5
MEAN_MOTION_DDOT = 0

CCSDS_OMM_VERS = 2.0
CREATION_DATE  = 
ORIGINATOR     = 

OBJECT_NAME    = CZ-4B R/B
OBJECT_ID      = 2004-035C
CENTER_NAME    = EARTH
REF_FRAME      = TEME
TIME_SYSTEM    = UTC
MEAN_ELEMENT_THEORY = SGP/SGP4

EPOCH          = 2025-12-14T07:55:33.133440
MEAN_MOTION    = 15.27405447
ECCENTRICITY   = .0031523
INCLINATION    = 97.3613
RA_OF_ASC_NODE = 18.6532
ARG_OF_PERICENTER = 271.5578
MEAN_ANOMALY   = 88.2050

EPHEMERIS_TYPE = 0
CLASSIFICATION_TYPE = U
NORAD_CAT_ID   = 28415
ELEMENT_SET_NO = 999
REV_AT_EPOCH   = 16687
BSTAR          = .33225129E-3
MEAN_MOTION_DOT = .897E-4
MEAN_MOTION_DDOT = 0

CCSDS_OMM_VERS = 2.0
CREATION_DATE  = 
ORIGINATOR     = 

OBJECT_NAME    = CZ-2C R/B
OBJECT_ID      = 2004-046B
CENTER_NAME    = EARTH
REF_FRAME      = TEME
TIME_SYSTEM    = UTC
MEAN_ELEMENT_THEORY = SGP/SGP4

EPOCH          = 2025-12-14T06:59:22.436160
MEAN_MOTION    = 14.26941953
ECCENTRICITY   = .0140434
INCLINATION    = 98.1990
RA_OF_ASC_NODE = 263.5726
ARG_OF_PERICENTER = 47.7480
MEAN_ANOMALY   = 313.5514

EPHEMERIS_TYPE = 0
CLASSIFICATION_TYPE = U
NORAD_CAT_ID   = 28480
ELEMENT_SET_NO = 999
REV_AT_EPOCH   = 9632
BSTAR          = .12502363E-3
MEAN_MOTION_DOT = .297E-5
MEAN_MOTION_DDOT = 0

CCSDS_OMM_VERS = 2.0
CREATION_DATE  = 
ORIGINATOR     = 

OBJECT_NAME    = ARIANE 5 R/B
OBJECT_ID      = 2004-049H
CENTER_NAME    = EARTH
REF_FRAME      = TEME
TIME_SYSTEM    = UTC
MEAN_ELEMENT_THEORY = SGP/SGP4

EPOCH          = 2025-12-14T08:05:22.839360
MEAN_MOTION    = 14.85016756
ECCENTRICITY   = .00833093
INCLINATION    = 98.2523
RA_OF_ASC_NODE = 148.6756
ARG_OF_PERICENTER = 267.7102
MEAN_ANOMALY   = 91.4571

EPHEMERIS_TYPE = 0
CLASSIFICATION_TYPE = U
NORAD_CAT_ID   = 28499
ELEMENT_SET_NO = 999
REV_AT_EPOCH   = 13312
BSTAR          = .17440478E-3
MEAN_MOTION_DOT = .1517E-4
MEAN_MOTION_DDOT = 0

CCSDS_OMM_VERS = 2.0
CREATION_DATE  = 
ORIGINATOR     = 

OBJECT_NAME    = CZ-2D R/B
OBJECT_ID      = 2005-024B
CENTER_NAME    = EARTH
REF_FRAME      = TEME
TIME_SYSTEM    = UTC
MEAN_ELEMENT_THEORY = SGP/SGP4

EPOCH          = 2025-12-14T06:26:05.372736
MEAN_MOTION    = 15.53303094
ECCENTRICITY   = .00052235
INCLINATION    = 97.3640
RA_OF_ASC_NODE = 355.7551
ARG_OF_PERICENTER = 0.8334
MEAN_ANOMALY   = 359.2927

EPHEMERIS_TYPE = 0
CLASSIFICATION_TYPE = U
NORAD_CAT_ID   = 28738
ELEMENT_SET_NO = 999
REV_AT_EPOCH   = 12649
BSTAR          = .52050834E-3
MEAN_MOTION_DOT = .32815E-3
MEAN_MOTION_DDOT = 0

