IDEFIX & ARIANE 42P R/B 
1 27422U 02021B   25348.33133344  .00000439  00000+0  18333-3 0  9994
2 27422  98.5788 283.0015 0012952  79.4006 280.8635 14.30951994231810
AQUA                    
1 27424U 02022A   25348.35139582  .00001559  00000+0  32213-3 0  9996
2 27424  98.4039 309.2565 0001151 113.9889  48.0491 14.61814134256261
CZ-4B R/B               
1 27432U 02024C   25348.12964363  .00000076  00000+0  62163-4 0  9996
2 27432  98.8999  36.8965 0049162 265.8768 148.3624 14.14528055217141
MIDORI II (ADEOS-II)    
1 27597U 02056A   25348.32560895  .00000393  00000+0  17233-3 0  9996
2 27597  98.7638 301.2902 0000260 157.2080 202.9113 14.29207205198100
H-2A R/B                
1 27601U 02056E   25348.13670765  .00000502  00000+0  19039-3 0  9997
2 27601  98.3068 306.8378 0071345  57.0420 314.7368 14.33677559201853
CZ-4B R/B               
1 28059U 03049C   25348.24617912  .00000536  00000+0  13434-3 0  9995
2 28059  98.6789 334.8670 0049058 131.5586 228.9832 14.54911028174178
CZ-2C R/B               
1 28222U 04012C   25348.34764170  .00037791  00000+0  54659-3 0  9995
2 28222  97.7425  41.1017 0016456 264.0415  95.8963 15.55671782190973
SL-16 R/B               
1 28353U 04021B   25348.31864209 -.00000231  00000+0 -95587-4 0  9998
2 28353  71.0014  51.6522 0005203 197.8549 162.2391 14.14580079110768
CZ-4B R/B               
1 28415U 04035C   25348.33024460  .00008970  00000+0  33225-3 0  9997
2 28415  97.3613  18.6532 0031523 271.5578  88.2050 15.27405447166875
CZ-2C R/B               
1 28480U 04046B   25348.29123190  .00000297  00000+0  12502-3 0  9995
2 28480  98.1990 263.5726 0140434  47.7480 313.5514 14.26941953 96323
ARIANE 5 R/B            
1 28499U 04049H   25348.33706990  .00001517  00000+0  17440-3 0  9990
2 28499  98.2523 148.6756 0083309 267.7102  91.4571 14.85016756133128
CZ-2D R/B               
1 28738U 05024B   25348.26811774  .00032815  00000+0  52051-3 0  9991
2 28738  97.3640 355.7551 0005223   0.8334 359.2927 15.53303094126492
